[{"OBJECT_NAME":"OBJECT D","OBJECT_ID":"2025-313D","EPOCH":"2026-03-09T21:56:57.808608","MEAN_MOTION":14.89111186,"ECCENTRICITY":0.01485836,"INCLINATION":97.5765,"RA_OF_ASC_NODE":143.4472,"ARG_OF_PERICENTER":297.1144,"MEAN_ANOMALY":61.4984,"EPHEMERIS_TYPE":0,"CLASSIFICATION_TYPE":"U","NORAD_CAT_ID":67251,"ELEMENT_SET_NO":999,"REV_AT_EPOCH":1062,"BSTAR":0.00021863983,"MEAN_MOTION_DOT":2.471e-5,"MEAN_MOTION_DDOT":0},{"OBJECT_NAME":"OBJECT AE","OBJECT_ID":"2025-313AE","EPOCH":"2026-03-09T22:39:11.546496","MEAN_MOTION":15.21274921,"ECCENTRICITY":0.00138698,"INCLINATION":97.3973,"RA_OF_ASC_NODE":145.1623,"ARG_OF_PERICENTER":1.9486,"MEAN_ANOMALY":358.1801,"EPHEMERIS_TYPE":0,"CLASSIFICATION_TYPE":"U","NORAD_CAT_ID":67276,"ELEMENT_SET_NO":999,"REV_AT_EPOCH":1085,"BSTAR":0.00043089391,"MEAN_MOTION_DOT":9.592e-5,"MEAN_MOTION_DDOT":0}]
